{
    "links": {
        "self": "http://www.neowsapp.com/rest/v1/neo/54017400?api_key=iIulBulltgU6a56xZRHN4H3l9WmuAYTsLGpBGhQ2"
    },
    "id": "54017400",
    "neo_reference_id": "54017400",
    "name": "(2020 LL)",
    "designation": "2020 LL",
    "nasa_jpl_url": "http://ssd.jpl.nasa.gov/sbdb.cgi?sstr=54017400",
    "absolute_magnitude_h": 25.438,
    "estimated_diameter": {
        "kilometers": {
            "estimated_diameter_min": 0.0217247595,
            "estimated_diameter_max": 0.048578039
        },
        "meters": {
            "estimated_diameter_min": 21.7247594619,
            "estimated_diameter_max": 48.5780389515
        },
        "miles": {
            "estimated_diameter_min": 0.0134991355,
            "estimated_diameter_max": 0.0301849846
        },
        "feet": {
            "estimated_diameter_min": 71.2754598328,
            "estimated_diameter_max": 159.3767733138
        }
    },
    "is_potentially_hazardous_asteroid": false,
    "close_approach_data": [
        {
            "close_approach_date": "1980-08-09",
            "close_approach_date_full": "1980-Aug-09 17:48",
            "epoch_date_close_approach": 334691280000,
            "relative_velocity": {
                "kilometers_per_second": "6.4055945184",
                "kilometers_per_hour": "23060.1402661612",
                "miles_per_hour": "14328.67437816"
            },
            "miss_distance": {
                "astronomical": "1.7244834255",
                "lunar": "670.8240525195",
                "kilometers": "257979047.305103685",
                "miles": "160300746.750993453"
            },
            "orbiting_body": "Juptr"
        },
        {
            "close_approach_date": "2020-06-14",
            "close_approach_date_full": "2020-Jun-14 03:14",
            "epoch_date_close_approach": 1592104440000,
            "relative_velocity": {
                "kilometers_per_second": "19.8113658547",
                "kilometers_per_hour": "71320.9170768541",
                "miles_per_hour": "44316.0442803375"
            },
            "miss_distance": {
                "astronomical": "0.0142982727",
                "lunar": "5.5620280803",
                "kilometers": "2138991.140599149",
                "miles": "1329107.4632362962"
            },
            "orbiting_body": "Earth"
        },
        {
            "close_approach_date": "2020-07-29",
            "close_approach_date_full": "2020-Jul-29 05:55",
            "epoch_date_close_approach": 1596002100000,
            "relative_velocity": {
                "kilometers_per_second": "13.0083771218",
                "kilometers_per_hour": "46830.157638647",
                "miles_per_hour": "29098.4387838582"
            },
            "miss_distance": {
                "astronomical": "0.0896940225",
                "lunar": "34.8909747525",
                "kilometers": "13418034.717732075",
                "miles": "8337580.154869635"
            },
            "orbiting_body": "Venus"
        },
        {
            "close_approach_date": "2086-12-04",
            "close_approach_date_full": "2086-Dec-04 14:50",
            "epoch_date_close_approach": 3689851800000,
            "relative_velocity": {
                "kilometers_per_second": "6.0066466442",
                "kilometers_per_hour": "21623.9279192151",
                "miles_per_hour": "13436.2678784701"
            },
            "miss_distance": {
                "astronomical": "1.5290025116",
                "lunar": "594.7819770124",
                "kilometers": "228735518.960010292",
                "miles": "142129660.8418023496"
            },
            "orbiting_body": "Juptr"
        },
        {
            "close_approach_date": "2088-08-24",
            "close_approach_date_full": "2088-Aug-24 02:33",
            "epoch_date_close_approach": 3744153180000,
            "relative_velocity": {
                "kilometers_per_second": "17.5723118733",
                "kilometers_per_hour": "63260.3227439693",
                "miles_per_hour": "39307.5044294402"
            },
            "miss_distance": {
                "astronomical": "0.3261253275",
                "lunar": "126.8627523975",
                "kilometers": "48787654.347052425",
                "miles": "30315242.674776465"
            },
            "orbiting_body": "Earth"
        }
    ],
    "orbital_data": {
        "orbit_id": "3",
        "orbit_determination_date": "2020-06-14 06:31:11",
        "first_observation_date": "2020-06-11",
        "last_observation_date": "2020-06-13",
        "data_arc_in_days": 2,
        "observations_used": 90,
        "orbit_uncertainty": "8",
        "minimum_orbit_intersection": ".00477838",
        "jupiter_tisserand_invariant": "3.093",
        "epoch_osculation": "2459012.5",
        "eccentricity": ".7235546072711013",
        "semi_major_axis": "2.417412352644178",
        "inclination": "2.211911025404911",
        "ascending_node_longitude": "245.9383956794574",
        "orbital_period": "1372.854565470499",
        "perihelion_distance": ".6682825072144106",
        "perihelion_argument": "96.13082628965383",
        "aphelion_distance": "4.166542198073945",
        "perihelion_time": "2459060.137479810034",
        "mean_anomaly": "347.5081504166941",
        "mean_motion": ".262227339337013",
        "equinox": "J2000",
        "orbit_class": {
            "orbit_class_type": "APO",
            "orbit_class_description": "Near-Earth asteroid orbits which cross the Earth’s orbit similar to that of 1862 Apollo",
            "orbit_class_range": "a (semi-major axis) > 1.0 AU; q (perihelion) < 1.017 AU"
        }
    },
    "is_sentry_object": false
}